STARLINK-37537          
1 69420U 26126A   26187.80364718  .00105144  00000+0  69638-3 0  9998
2 69420  97.2847  48.7412 0001053  65.0087 295.1287 15.75215958  5839
STARLINK-37585          
1 69421U 26126B   26187.60247704  .00045913  00000+0  30677-3 0  9990
2 69421  97.2843  48.5569 0001096  34.1466 325.9869 15.75210253  5800
STARLINK-37573          
1 69422U 26126C   26187.61624074  .00085601  00000+0  56868-3 0  9999
2 69422  97.2844  48.5378 0001477  14.9365 345.1944 15.75204339  5803
STARLINK-37820          
1 69423U 26126D   26187.56754065  .00208734  00000+0  13587-2 0  9992
2 69423  97.2844  48.6058 0001460 119.5135 240.6276 15.75320891  5808
STARLINK-37822          
1 69424U 26126E   26187.58377205  .00105300  00000+0  69599-3 0  9992
2 69424  97.2843  48.5834 0000732  11.9138 348.2144 15.75262950  5808
STARLINK-37836          
1 69425U 26126F   26187.56471903  .00182775  00000+0  11950-2 0  9999
2 69425  97.2846  48.6101 0001165  90.0208 270.1191 15.75291307  5800
STARLINK-37850          
1 69426U 26126G   26187.56966008  .00232415  00000+0  15090-2 0  9991
2 69426  97.2848  48.6039 0001586 114.6952 245.4478 15.75312552  5853
STARLINK-37823          
1 69427U 26126H   26187.59012808  .00138240  00000+0  91134-3 0  9990
2 69427  97.2845  48.5737 0000765  20.4419 339.6876 15.75226330  5806
STARLINK-37834          
1 69428U 26126J   26187.59857262  .00023655  00000+0  15907-3 0  9999
2 69428  97.2840  48.5625 0002527 328.4393  31.6720 15.75180434  5809
STARLINK-37857          
1 69429U 26126K   26187.58730588  .00047319  00000+0  31515-3 0  9996
2 69429  97.2846  48.5781 0001269  65.6858 294.4539 15.75278474  5806
STARLINK-37866          
1 69430U 26126L   26187.56260111  .00234505  00000+0  15224-2 0  9999
2 69430  97.2845  48.6127 0001409 106.4770 253.6651 15.75310284  5858
STARLINK-37555          
1 69431U 26126M   26187.57530491  .00221568  00000+0  14401-2 0  9993
2 69431  97.2840  48.5954 0001510 121.8933 238.2480 15.75319208  5850
STARLINK-37870          
1 69432U 26126N   26187.57177769  .00198830  00000+0  12973-2 0  9996
2 69432  97.2851  48.6005 0000749  72.0947 288.0400 15.75293109  5807
STARLINK-37872          
1 69433U 26126P   26187.55660169  .00213716  00000+0  13914-2 0  9993
2 69433  97.2843  48.6214 0001215 116.2555 243.8835 15.75302301  5802
STARLINK-37815          
1 69434U 26126Q   26187.60636022  .00116149  00000+0  76868-3 0  9991
2 69434  97.2839  48.5515 0001575   9.5119 350.6176 15.75200661  5801
STARLINK-37801          
1 69435U 26126R   26187.84635696  .00157919  00000+0  10382-2 0  9992
2 69435  97.2847  48.8402 0000798  33.5651 326.5665 15.75233838  5899
STARLINK-37800          
1 69436U 26126S   26187.59436119  .00059761  00000+0  39826-3 0  9995
2 69436  97.2839  48.5700 0002084 355.0893   5.0352 15.75216062  5802
STARLINK-37792          
1 69437U 26126T   26187.75003471 -.00136442  00000+0 -92678-3 0  9993
2 69437  97.2846  48.8395 0001576  91.1393 319.1314 15.75233195  5894
STARLINK-37783          
1 69438U 26126U   26187.55872122  .00142602  00000+0  94016-3 0  9990
2 69438  97.2842  48.6188 0001519 359.3329   0.7934 15.75211979  5857
STARLINK-37771          
1 69439U 26126V   26187.61059319  .00056972  00000+0  37995-3 0  9990
2 69439  97.2846  48.5457 0001629   6.7840 353.3446 15.75210105  5803
STARLINK-37747          
1 69440U 26126W   26187.57953779  .00051453  00000+0  34346-3 0  9996
2 69440  97.2838  48.5893 0000480 343.1994  16.9256 15.75211079  5804
STARLINK-37629          
1 69443U 26127A   26187.53034644  .00131869  00000+0  84716-3 0  9993
2 69443  53.1590 166.2800 0001223 164.3871 195.7187 15.75344443  4453
STARLINK-37509          
1 69444U 26127B   26187.84337102  .00148785  00000+0  95626-3 0  9990
2 69444  53.1591 164.6750 0000940  93.9017 266.2110 15.75275457  4509
STARLINK-37641          
1 69445U 26127C   26187.32186456  .00246745  00000+0  15575-2 0  9997
2 69445  53.1572 167.1036 0001263  81.5254 278.5909 15.75382048  4427
STARLINK-37522          
1 69446U 26127D   26187.52581317  .00172506  00000+0  11002-2 0  9999
2 69446  53.1592 166.2501 0000653 127.0600 233.0480 15.75373230  4456
STARLINK-37640          
1 69447U 26127E   26187.37169172  .00222387  00000+0  14086-2 0  9992
2 69447  53.1594 166.6996 0001447 109.1662 250.9515 15.75377234  4435
STARLINK-37572          
1 69448U 26127F   26187.45362654  .00261718  00000+0  16477-2 0  9999
2 69448  53.1594 166.5061 0001414  40.3711 319.7414 15.75398099  4448
STARLINK-37643          
1 69449U 26127G   26187.75003471  .00014356  00000+0  97805-4 0  9992
2 69449  53.1589 165.0856 0000997  91.0732 125.1957 15.75204903  5790
STARLINK-37601          
1 69450U 26127H   26187.58472334  .00180028  00000+0  11474-2 0  9999
2 69450  53.1593 165.9034 0000803  95.4308 264.6804 15.75366443  4468
STARLINK-37578          
1 69451U 26127J   26187.57110234  .00122635  00000+0  79007-3 0  9994
2 69451  53.1564 165.8110 0000946 136.4384 223.6711 15.75313293  4466
