OBJECT_NAME,OBJECT_ID,EPOCH,MEAN_MOTION,ECCENTRICITY,INCLINATION,RA_OF_ASC_NODE,ARG_OF_PERICENTER,MEAN_ANOMALY,EPHEMERIS_TYPE,CLASSIFICATION_TYPE,NORAD_CAT_ID,ELEMENT_SET_NO,REV_AT_EPOCH,BSTAR,MEAN_MOTION_DOT,MEAN_MOTION_DDOT
STARLINK-37537,2026-126A,2026-07-06T19:17:15.116352,15.75215958,.0001053,97.2847,48.7412,65.0087,295.1287,0,U,69420,999,583,.69638E-3,.105144E-2,0
STARLINK-37585,2026-126B,2026-07-06T14:27:34.016256,15.75210253,.0001096,97.2843,48.5569,34.1466,325.9869,0,U,69421,999,580,.30677E-3,.45913E-3,0
STARLINK-37573,2026-126C,2026-07-06T14:47:23.199936,15.75204339,.0001477,97.2844,48.5378,14.9365,345.1944,0,U,69422,999,580,.56868E-3,.85601E-3,0
STARLINK-37820,2026-126D,2026-07-06T13:37:15.512160,15.75320891,.000146,97.2844,48.6058,119.5135,240.6276,0,U,69423,999,580,.13587E-2,.208734E-2,0
STARLINK-37822,2026-126E,2026-07-06T14:00:37.905120,15.75262950,.0000732,97.2843,48.5834,11.9138,348.2144,0,U,69424,999,580,.69599E-3,.1053E-2,0
STARLINK-37836,2026-126F,2026-07-06T13:33:11.724192,15.75291307,.0001165,97.2846,48.6101,90.0208,270.1191,0,U,69425,999,580,.1195E-2,.182775E-2,0
STARLINK-37850,2026-126G,2026-07-06T13:40:18.630912,15.75312552,.0001586,97.2848,48.6039,114.6952,245.4478,0,U,69426,999,585,.1509E-2,.232415E-2,0
STARLINK-37823,2026-126H,2026-07-06T14:09:47.066112,15.75226330,.0000765,97.2845,48.5737,20.4419,339.6876,0,U,69427,999,580,.91134E-3,.13824E-2,0
STARLINK-37834,2026-126J,2026-07-06T14:21:56.674368,15.75180434,.0002527,97.2840,48.5625,328.4393,31.6720,0,U,69428,999,580,.15907E-3,.23655E-3,0
STARLINK-37857,2026-126K,2026-07-06T14:05:43.228032,15.75278474,.0001269,97.2846,48.5781,65.6858,294.4539,0,U,69429,999,580,.31515E-3,.47319E-3,0
STARLINK-37866,2026-126L,2026-07-06T13:30:08.735904,15.75310284,.0001409,97.2845,48.6127,106.4770,253.6651,0,U,69430,999,585,.15224E-2,.234505E-2,0
STARLINK-37555,2026-126M,2026-07-06T13:48:26.344224,15.75319208,.000151,97.2840,48.5954,121.8933,238.2480,0,U,69431,999,585,.14401E-2,.221568E-2,0
STARLINK-37870,2026-126N,2026-07-06T13:43:21.592416,15.75293109,.0000749,97.2851,48.6005,72.0947,288.0400,0,U,69432,999,580,.12973E-2,.19883E-2,0
STARLINK-37872,2026-126P,2026-07-06T13:21:30.386016,15.75302301,.0001215,97.2843,48.6214,116.2555,243.8835,0,U,69433,999,580,.13914E-2,.213716E-2,0
STARLINK-37815,2026-126Q,2026-07-06T14:33:09.523008,15.75200661,.0001575,97.2839,48.5515,9.5119,350.6176,0,U,69434,999,580,.76868E-3,.116149E-2,0
STARLINK-37801,2026-126R,2026-07-06T20:18:45.241344,15.75233838,.0000798,97.2847,48.8402,33.5651,326.5665,0,U,69435,999,589,.10382E-2,.157919E-2,0
STARLINK-37800,2026-126S,2026-07-06T14:15:52.806816,15.75216062,.0002084,97.2839,48.5700,355.0893,5.0352,0,U,69436,999,580,.39826E-3,.59761E-3,0
STARLINK-37792,2026-126T,2026-07-06T18:00:02.998944,15.75233195,.0001576,97.2846,48.8395,91.1393,319.1314,0,U,69437,999,589,-.92678E-3,-.136442E-2,0
STARLINK-37783,2026-126U,2026-07-06T13:24:33.513408,15.75211979,.0001519,97.2842,48.6188,359.3329,0.7934,0,U,69438,999,585,.94016E-3,.142602E-2,0
STARLINK-37771,2026-126V,2026-07-06T14:39:15.251616,15.75210105,.0001629,97.2846,48.5457,6.7840,353.3446,0,U,69439,999,580,.37995E-3,.56972E-3,0
STARLINK-37747,2026-126W,2026-07-06T13:54:32.065056,15.75211079,.000048,97.2838,48.5893,343.1994,16.9256,0,U,69440,999,580,.34346E-3,.51453E-3,0
STARLINK-37629,2026-127A,2026-07-06T12:43:41.932416,15.75344443,.0001223,53.1590,166.2800,164.3871,195.7187,0,U,69443,999,445,.84716E-3,.131869E-2,0
STARLINK-37509,2026-127B,2026-07-06T20:14:27.256128,15.75275457,.000094,53.1591,164.6750,93.9017,266.2110,0,U,69444,999,450,.95626E-3,.148785E-2,0
STARLINK-37641,2026-127C,2026-07-06T07:43:29.097984,15.75382048,.00012634,53.1572,167.1036,81.5254,278.5909,0,U,69445,999,442,.15575495E-2,.246745E-2,0
STARLINK-37522,2026-127D,2026-07-06T12:37:10.257888,15.75373230,.0000653,53.1592,166.2501,127.0600,233.0480,0,U,69446,999,445,.11002E-2,.172506E-2,0
STARLINK-37640,2026-127E,2026-07-06T08:55:14.164608,15.75377234,.00014475,53.1594,166.6996,109.1662,250.9515,0,U,69447,999,443,.14085757E-2,.222387E-2,0
STARLINK-37572,2026-127F,2026-07-06T10:53:13.333056,15.75398099,.0001414,53.1594,166.5061,40.3711,319.7414,0,U,69448,999,444,.16477E-2,.261718E-2,0
STARLINK-37643,2026-127G,2026-07-06T18:00:02.998944,15.75204903,.0000997,53.1589,165.0856,91.0732,125.1957,0,U,69449,999,579,.97805E-4,.14356E-3,0
STARLINK-37601,2026-127H,2026-07-06T14:02:00.096576,15.75366443,.0000803,53.1593,165.9034,95.4308,264.6804,0,U,69450,999,446,.11474E-2,.180028E-2,0
STARLINK-37578,2026-127J,2026-07-06T13:42:23.242176,15.75313293,.0000946,53.1564,165.8110,136.4384,223.6711,0,U,69451,999,446,.79007E-3,.122635E-2,0
